NORAD_ID,Epoch_Time,Inclination_deg,RA_of_Asc_Node_deg,Eccentricity_e,Arg_of_Perigee_deg,Mean_Anomaly_deg,BSTAR,Mean_Motion_rev_day,TLE_Line_1,TLE_Line_2
34317,51:01.3,73.925,49.675,0.0336297,40.5919,21.9034,0.00065235,13.65111843,1 34317U 93036NP  25338.28543226  .00000757  00000-0  65235-3 0  9995,2 34317  73.9250  49.6750 0336297  40.5919  21.9034 13.65111843835047
34317,09:11.6,73.9249,49.1742,0.0336301,40.0313,77.2867,0.00062347,13.65111965,1 34317U 93036NP  25338.58971806  .00000722  00000-0  62347-3 0  9990,2 34317  73.9249  49.1742 0336301  40.0313  77.2867 13.65111965835087
34317,09:11.6,73.9249,49.1742,0.0336301,40.0313,77.2867,0.00062347,13.65111965,1 34317U 93036NP  25338.58971806  .00000722  00000-0  62347-3 0  9990,2 34317  73.9249  49.1742 0336301  40.0313  77.2867 13.65111965835087
34431,14:56.9,74.0741,191.2257,0.0068715,179.2929,180.8331,0.00093884,14.28733748,1 34431U 93036RY  25337.88538096  .00002399  00000-0  93884-3 0  9991,2 34431  74.0741 191.2257 0068715 179.2929 180.8331 14.28733748870166
34431,36:36.5,74.0741,190.9722,0.0068703,179.0094,181.1205,0.00094447,14.2873436,1 34431U 93036RY  25338.02542207  .00002413  00000-0  94447-3 0  9990,2 34431  74.0741 190.9722 0068703 179.0094 181.1205 14.28734360870184
34431,36:36.5,74.0741,190.9722,0.0068703,179.0094,181.1205,0.00094447,14.2873436,1 34431U 93036RY  25338.02542208  .00002413  00000-0  94447-3 0  9991,2 34431  74.0741 190.9722 0068703 179.0094 181.1205 14.28734360870184
34431,44:04.3,74.0742,189.8318,0.006867,177.7077,182.4402,0.00095752,14.28737288,1 34431U 93036RY  25338.65560572  .00002447  00000-0  95752-3 0  9991,2 34431  74.0742 189.8318 0068670 177.7077 182.4402 14.28737288870277
34431,44:04.3,74.0742,189.8318,0.006867,177.7077,182.4402,0.00095752,14.28737288,1 34431U 93036RY  25338.65560572  .00002447  00000-0  95752-3 0  9991,2 34431  74.0742 189.8318 0068670 177.7077 182.4402 14.28737288870277
38431,37:03.2,90.2313,353.2933,0.0024758,31.8888,328.3728,0.0016896,13.00582178,1 38431U 65027EL  25337.48406455  .00000521  00000-0  16896-2 0  9995,2 38431  90.2313 353.2933 0024758  31.8888 328.3728 13.00582178639139
39431,37:24.8,97.7796,99.4764,0.0189743,258.7078,99.2744,0.00038257,14.50980712,1 39431U 13066R   25337.85931527  .00001859  00000-0  38257-3 0  9997,2 39431  97.7796  99.4764 0189743 258.7078  99.2744 14.50980712635607
39431,35:19.3,97.7796,99.668,0.0189746,258.0615,99.9253,0.00039255,14.50981648,1 39431U 13066R   25338.06619598  .00001909  00000-0  39255-3 0  9997,2 39431  97.7796  99.6680 0189746 258.0615  99.9253 14.50981648635633
39431,33:13.8,97.7796,99.8595,0.018975,257.4156,100.5762,0.00041324,14.50983017,1 39431U 13066R   25338.27307636  .00002012  00000-0  41324-3 0  9993,2 39431  97.7796  99.8595 0189750 257.4156 100.5762 14.50983017635667
39431,12:32.0,97.7796,99.9234,0.0189749,257.1994,100.7941,0.00041375,14.50983258,1 39431U 13066R   25338.34203662  .00002015  00000-0  41375-3 0  9994,2 39431  97.7796  99.9234 0189749 257.1994 100.7941 14.50983258635672
39431,12:32.0,97.7796,99.9234,0.0189749,257.1994,100.7941,0.00041375,14.50983258,1 39431U 13066R   25338.34203663  .00002015  00000-0  41375-3 0  9995,2 39431  97.7796  99.9234 0189749 257.1994 100.7941 14.50983258635672
39431,47:39.1,97.7797,100.3704,0.0189763,255.6878,102.3183,0.00039549,14.50984243,1 39431U 13066R   25338.82475867  .00001924  00000-0  39549-3 0  9993,2 39431  97.7797 100.3704 0189763 255.6878 102.3183 14.50984243635741
43108,16:15.4,54.4975,309.1071,0.0004789,274.2636,85.6663,0,1.86230755,1 43108U 18003B   25337.84462311 -.00000068  00000-0  00000+0 0  9991,2 43108  54.4975 309.1071 0004789 274.2636  85.6663  1.86230755 53729
43108,16:15.4,54.4975,309.1071,0.0004789,274.2636,85.6663,0,1.86230755,1 43108U 18003B   25337.84462312 -.00000068  00000-0  00000-0 0  9993,2 43108  54.4975 309.1071 0004789 274.2636  85.6663  1.86230755 53729
43110,22:20.8,54.9048,237.7249,0.5570487,2.9296,359.359,0.0019358,4.56963405,1 43110U 18003D   25338.01551852  .00001980  00000-0  19358-2 0  9995,2 43110  54.9048 237.7249 5570487   2.9296 359.3590  4.56963405131033
43110,22:20.8,54.9048,237.7249,0.5570487,2.9296,359.359,0.0019358,4.56963405,1 43110U 18003D   25338.01551853  .00001980  00000-0  19358-2 0  9996,2 43110  54.9048 237.7249 5570487   2.9296 359.3590  4.56963405131033
43110,37:27.4,54.9048,237.6025,0.5570548,2.999,359.3444,0.0021516,4.56964606,1 43110U 18003D   25338.23434513  .00002214  00000-0  21516-2 0  9993,2 43110  54.9048 237.6025 5570548   2.9990 359.3444  4.56964606131046
43110,37:27.4,54.9048,237.6025,0.5570548,2.999,359.3444,0.0021516,4.56964606,1 43110U 18003D   25338.23434513  .00002214  00000-0  21516-2 0  9993,2 43110  54.9048 237.6025 5570548   2.9990 359.3444  4.56964606131046
43111,08:15.2,97.433,35.7026,0.0001125,187.1053,173.0166,8.49E-05,15.19361073,1 43111U 18004A   25337.92239861  .00001727  00000-0  84889-4 0  9991,2 43111  97.4330  35.7026 0001125 187.1053 173.0166 15.19361073437683
43111,08:15.2,97.433,35.7026,0.0001125,187.1053,173.0166,8.49E-05,15.19361073,1 43111U 18004A   25337.92239861  .00001727  00000-0  84889-4 0  9991,2 43111  97.4330  35.7026 0001125 187.1053 173.0166 15.19361073437683
43111,08:15.2,97.433,35.7026,0.0001125,187.1053,173.0166,8.49E-05,15.19361073,1 43111U 18004A   25337.92239861  .00001727  00000-0  84889-4 0  9991,2 43111  97.4330  35.7026 0001125 187.1053 173.0166 15.19361073437683
43111,27:36.1,97.4331,35.9615,0.0001169,188.9245,171.1969,8.53E-05,15.19364675,1 43111U 18004A   25338.18583449  .00001737  00000-0  85345-4 0  9993,2 43111  97.4331  35.9615 0001169 188.9245 171.1969 15.19364675437726
43111,27:36.1,97.4331,35.9615,0.0001169,188.9245,171.1969,8.53E-05,15.19364675,1 43111U 18004A   25338.18583449  .00001737  00000-0  85345-4 0  9993,2 43111  97.4331  35.9615 0001169 188.9245 171.1969 15.19364675437726
43111,37:16.4,97.4332,36.0913,0.000122,185.7698,174.3523,8.84E-05,15.19374717,1 43111U 18004A   25338.31755141  .00001802  00000-0  88432-4 0  9991,2 43111  97.4332  36.0913 0001220 185.7698 174.3523 15.19374717437746
43111,12:06.6,97.434,36.1563,0.0001135,188.6397,171.4819,8.86E-05,15.19377761,1 43111U 18004A   25338.38340993  .00001806  00000-0  88572-4 0  9992,2 43111  97.4340  36.1563 0001135 188.6397 171.4819 15.19377761437759
43111,06:22.0,97.4333,36.4803,3.73E-05,127.8571,232.2697,0.00083912,15.19154935,1 43111U 18004A   25338.71275470  .00017598  00000-0  83912-3 0  9993,2 43111  97.4333  36.4803 0000373 127.8571 232.2697 15.19154935437805
43111,41:13.0,97.4333,36.5452,3.98E-05,128.3717,231.7554,0.00085151,15.19156529,1 43111U 18004A   25338.77862297  .00017860  00000-0  85151-3 0  9997,2 43111  97.4333  36.5452 0000398 128.3717 231.7554 15.19156529437819
43111,16:04.1,97.4333,36.6098,3.87E-05,124.5835,235.5436,0.00086722,15.19157461,1 43111U 18004A   25338.84449142  .00018192  00000-0  86722-3 0  9999,2 43111  97.4333  36.6098 0000387 124.5835 235.5436 15.19157461437821
43113,26:24.3,99.2528,225.587,0.0354885,318.9413,38.5561,0.0004951,14.66366955,1 43113U 18004C   25337.72667069  .00007047  00000-0  49510-3 0  9998,2 43113  99.2528 225.5870 0354885 318.9413  38.5561 14.66366955408821
43113,15:56.3,99.2529,226.0495,0.0354816,317.6872,39.7446,0.00061578,14.66376089,1 43113U 18004C   25338.13606881  .00008793  00000-0  61578-3 0  9996,2 43113  99.2529 226.0495 0354816 317.6872  39.7446 14.66376089408880
43113,32:27.0,99.2528,226.2036,0.0354801,317.2691,40.1412,0.0006466,14.66378982,1 43113U 18004C   25338.27253437  .00009239  00000-0  64660-3 0  9997,2 43113  99.2528 226.2036 0354801 317.2691  40.1412 14.66378982408907
43113,43:43.5,99.2527,226.5892,0.0354762,316.2233,41.1334,0.00062933,14.66384021,1 43113U 18004C   25338.61369782  .00008988  00000-0  62933-3 0  9997,2 43113  99.2527 226.5892 0354762 316.2233  41.1334 14.66384021408956
43113,21:58.8,99.2527,226.6663,0.0354753,316.0137,41.3324,0.00063253,14.66385338,1 43113U 18004C   25338.68193030  .00009034  00000-0  63253-3 0  9994,2 43113  99.2527 226.6663 0354753 316.0137  41.3324 14.66385338408968
43146,49:07.0,97.6369,126.878,0.0002185,284.1259,75.9738,0.00061705,15.30331133,1 43146U 18006A   25337.95077566  .00018048  00000-0  61705-3 0  9991,2 43146  97.6369 126.8780 0002185 284.1259  75.9738 15.30331133438804
43146,05:44.7,97.6369,127.147,0.0002175,282.64,77.4596,0.0007514,15.303451,1 43146U 18006A   25338.21232343  .00022016  00000-0  75140-3 0  9995,2 43146  97.6369 127.1470 0002175 282.6400  77.4596 15.30345100438846
43146,14:03.5,97.637,127.2815,0.000217,281.9575,78.1422,0.00075187,15.30350865,1 43146U 18006A   25338.34309645  .00022034  00000-0  75187-3 0  9990,2 43146  97.6370 127.2815 0002170 281.9575  78.1422 15.30350865438864
43146,04:50.4,97.6371,127.6178,0.000216,279.7603,80.3393,0.0007081,15.30363112,1 43146U 18006A   25338.67002734  .00020751  00000-0  70810-3 0  9997,2 43146  97.6371 127.6178 0002160 279.7603  80.3393 15.30363112438914
43146,38:59.7,97.6372,127.685,0.0002153,279.2016,80.898,0.0006952,15.30365718,1 43146U 18006A   25338.73541321  .00020372  00000-0  69520-3 0  9999,2 43146  97.6372 127.6850 0002153 279.2016  80.8980 15.30365718438929
43146,47:18.4,97.6372,127.8195,0.0002154,278.3342,81.7654,0.00066303,15.30371107,1 43146U 18006A   25338.86618462  .00019426  00000-0  66303-3 0  9998,2 43146  97.6372 127.8195 0002154 278.3342  81.7654 15.30371107438945
43152,24:30.8,97.4009,342.9027,0.0001765,93.9449,266.1989,2.45E-05,15.22412468,1 43152U 18007A   25337.97535640  .00000497  00000-0  24496-4 0  9999,2 43152  97.4009 342.9027 0001765  93.9449 266.1989 15.22412468437718
43152,24:30.8,97.4013,342.9027,0.0001773,93.5018,266.6421,2.45E-05,15.22412777,1 43152U 18007A   25337.97535642  .00000497  00000-0  24506-4 0  9993,2 43152  97.4013 342.9027 0001773  93.5018 266.6421 15.22412777437719
